{"_default": { "16": {"norad_id": "40908", "name": "LILACSAT 2", "tle1": "1 40908U 15049K   26161.56399311  .00015995  00000-0  27470-3 0  9995", "tle2": "2 40908  97.4660 198.1544 0005285 277.2208  82.8443 15.51225787594724", "object_type": "PAYLOAD", "criticality_score": 9.0, "last_updated": "2026-06-11T12:15:23.970987+00:00", "maneuver_count": 0}, "17": {"norad_id": "40057", "name": "VELOX 1", "tle1": "1 40057U 14034E   26161.57842700  .00004171  00000-0  36027-3 0  9991", "tle2": "2 40057  98.2547  66.2076 0006414 303.6526  56.4082 14.97824831645614", "object_type": "PAYLOAD", "criticality_score": 9.0, "last_updated": "2026-06-11T12:15:23.970987+00:00", "maneuver_count": 0}, "18": {"norad_id": "40055", "name": "CANX-4", "tle1": "1 40055U 14034C   26161.59947181  .00000811  00000-0  11136-3 0  9991", "tle2": "2 40055  98.3131  36.6704 0013604  37.2327 322.9825 14.81252527643556", "object_type": "PAYLOAD", "criticality_score": 9.0, "last_updated": "2026-06-11T12:15:23.970987+00:00", "maneuver_count": 0}, "19": {"norad_id": "40054", "name": "AISAT", "tle1": "1 40054U 14034B   26161.46519399  .00008314  00000-0  53428-3 0  9998", "tle2": "2 40054  98.2392  73.3824 0007457 239.1523 120.8970 15.08698884646193", "object_type": "PAYLOAD", "criticality_score": 9.0, "last_updated": "2026-06-11T12:15:23.970987+00:00", "maneuver_count": 0}, "20": {"norad_id": "40043", "name": "TIGRISAT", "tle1": "1 40043U 14033AK  26161.17627726  .00002056  00000-0  24109-3 0  9998", "tle2": "2 40043  97.7822 311.3494 0050709  97.5926 263.1053 14.85135319644589", "object_type": "PAYLOAD", "criticality_score": 9.0, "last_updated": "2026-06-11T12:15:23.970987+00:00", "maneuver_count": 0}, "21": {"norad_id": "40024", "name": "NANOSAT C BR1", "tle1": "1 40024U 14033Q   26161.54043282  .00014797  00000-0  49267-3 0  9994", "tle2": "2 40024  98.0734 193.3401 0003779 181.7238 178.3988 15.31244609652967", "object_type": "PAYLOAD", "criticality_score": 9.0, "last_updated": "2026-06-11T12:15:23.970987+00:00", "maneuver_count": 0}, "51": {"norad_id": "40074", "name": "UKUBE 1", "tle1": "1 40074U 14037F   26161.49086673  .00008128  00000-0  45886-3 0  9992", "tle2": "2 40074  98.4238 164.0595 0002176 142.7393 217.3987 15.13445461647543", "object_type": "PAYLOAD", "criticality_score": 9.0, "last_updated": "2026-06-11T12:15:23.970987+00:00", "maneuver_count": 0}, "52": {"norad_id": "40042", "name": "POLYITAN 1", "tle1": "1 40042U 14033AJ  26161.59085835  .00016113  00000-0  50689-3 0  9993", "tle2": "2 40042  98.0952 187.2288 0008149 160.1967 199.9591 15.33024156652582", "object_type": "PAYLOAD", "criticality_score": 9.0, "last_updated": "2026-06-11T12:15:23.970987+00:00", "maneuver_count": 0}, "53": {"norad_id": "40025", "name": "QB50P1", "tle1": "1 40025U 14033R   26161.55924750  .00007227  00000-0  35728-3 0  9991", "tle2": "2 40025  98.0970 172.2408 0007241 241.5773 118.4730 15.18160069652029", "object_type": "PAYLOAD", "criticality_score": 9.0, "last_updated": "2026-06-11T12:15:23.970987+00:00", "maneuver_count": 0}, "84": {"norad_id": "40032", "name": "QB50P2", "tle1": "1 40032U 14033Y   26161.49581433  .00005829  00000-0  31531-3 0  9993", "tle2": "2 40032  98.0751 157.9598 0007303 184.9608 175.1552 15.15072964651653", "object_type": "PAYLOAD", "criticality_score": 9.0, "last_updated": "2026-06-11T12:15:23.970987+00:00", "maneuver_count": 0}, "85": {"norad_id": "40030", "name": "DTUSAT 2", "tle1": "1 40030U 14033W   26161.50091822  .00005635  00000-0  30625-3 0  9999", "tle2": "2 40030  98.0861 158.8038 0006186 253.0774 106.9779 15.14932323651670", "object_type": "PAYLOAD", "criticality_score": 9.0, "last_updated": "2026-06-11T12:15:23.970987+00:00", "maneuver_count": 0}, "86": {"norad_id": "40021", "name": "DUCHIFAT 1", "tle1": "1 40021U 14033M   26161.43136475  .00098092  00000-0  10616-2 0  9991", "tle2": "2 40021  98.0468 219.6499 0004198 126.9864 233.1777 15.63249626654696", "object_type": "PAYLOAD", "criticality_score": 9.0, "last_updated": "2026-06-11T12:15:23.970987+00:00", "maneuver_count": 0}, "110": {"norad_id": "40056", "name": "CANX-5", "tle1": "1 40056U 14034D   26161.59798143  .00000817  00000-0  11204-3 0  9996", "tle2": "2 40056  98.3133  36.7122 0013614  37.3826 322.8330 14.81269696634364", "object_type": "PAYLOAD", "criticality_score": 9.0, "last_updated": "2026-06-11T12:15:23.970987+00:00", "maneuver_count": 0}, "141": {"norad_id": "40071", "name": "DX 1", "tle1": "1 40071U 14037C   26161.57869831  .00001688  00000-0  18169-3 0  9991", "tle2": "2 40071  98.3861 122.8791 0005913 302.1585  57.9057 14.89965546645129", "object_type": "PAYLOAD", "criticality_score": 9.0, "last_updated": "2026-06-11T12:15:23.970987+00:00", "maneuver_count": 0}, "142": {"norad_id": "40069", "name": "METEOR M2", "tle1": "1 40069U 14037A   26161.59932620 -.00000038  00000-0  20517-5 0  9998", "tle2": "2 40069  98.5110 137.5710 0006973  60.2698 299.9173 14.21459460618387", "object_type": "PAYLOAD", "criticality_score": 9.0, "last_updated": "2026-06-11T12:15:23.970987+00:00", "maneuver_count": 0}, "152": {"norad_id": "40719", "name": "DEORBITSAIL", "tle1": "1 40719U 15032E   26161.56996672  .00005918  00000-0  43477-3 0  9999", "tle2": "2 40719  97.5892  18.5241 0011396 256.5482 103.4474 15.03760332590250", "object_type": "PAYLOAD", "criticality_score": 9.0, "last_updated": "2026-06-11T12:15:23.970987+00:00", "maneuver_count": 0}, "185": {"norad_id": "40905", "name": "OBJECT G", "tle1": "1 40905U 15049G   26161.59584434  .00038457  00000-0  37804-3 0  9997", "tle2": "2 40905  97.4564 205.2747 0004486 214.3633 145.7337 15.65922925595416", "object_type": "PAYLOAD", "criticality_score": 9.0, "last_updated": "2026-06-11T12:15:23.970987+00:00", "maneuver_count": 0}, "227": {"norad_id": "40039", "name": "PERSEUS M1", "tle1": "1 40039U 14033AF  26161.54657019  .00001297  00000-0  12219-3 0  9997", "tle2": "2 40039  97.9645 105.5698 0010696 326.6883  33.3663 14.95613103649646", "object_type": "PAYLOAD", "criticality_score": 9.0, "last_updated": "2026-06-11T12:15:23.970987+00:00", "maneuver_count": 0}, "260": {"norad_id": "40376", "name": "SMAP", "tle1": "1 40376U 15003A   26161.58412799  .00000373  00000-0  81225-4 0  9995", "tle2": "2 40376  98.1276 168.7722 0001280  93.7026 266.4322 14.63360771606652", "object_type": "PAYLOAD", "criticality_score": 9.0, "last_updated": "2026-06-11T12:15:23.970987+00:00", "maneuver_count": 0}, "274": {"norad_id": "40119", "name": "BRITE-PL 2", "tle1": "1 40119U 14049B   26161.54434165  .00001468  00000-0  14098-3 0  9995", "tle2": "2 40119  97.9091 273.4936 0015152 128.1527 232.1061 14.94573225640452", "object_type": "PAYLOAD", "criticality_score": 9.0, "last_updated": "2026-06-11T12:15:23.970987+00:00", "maneuver_count": 0}, "288": {"norad_id": "40715", "name": "DMC 3-FM1", "tle1": "1 40715U 15032A   26161.60523801  .00000579  00000-0  72542-4 0  9994", "tle2": "2 40715  97.6476  27.0383 0007206  76.7397 283.4622 14.85732509588939", "object_type": "PAYLOAD", "criticality_score": 9.0, "last_updated": "2026-06-11T12:15:23.970987+00:00", "maneuver_count": 0}, "289": {"norad_id": "40716", "name": "DMC 3-FM2", "tle1": "1 40716U 15032B   26161.62731644 -.00000056  00000-0 -52745-6 0  9990", "tle2": "2 40716  97.6528  28.6284 0007635  80.7291 279.4787 14.85734581588938", "object_type": "PAYLOAD", "criticality_score": 9.0, "last_updated": "2026-06-11T12:15:23.970987+00:00", "maneuver_count": 0}, "290": {"norad_id": "40717", "name": "DMC 3-FM3", "tle1": "1 40717U 15032C   26161.65059751  .00000467  00000-0  59667-4 0  9998", "tle2": "2 40717  97.6579  30.3995 0006828  81.2690 278.9299 14.85725242588943", "object_type": "PAYLOAD", "criticality_score": 9.0, "last_updated": "2026-06-11T12:15:23.970987+00:00", "maneuver_count": 0}, "295": {"norad_id": "40718", "name": "CARBONITE 1", "tle1": "1 40718U 15032D   26161.64024946  .00001225  00000-0  15466-3 0  9997", "tle2": "2 40718  97.6509 339.9814 0013612 321.2933  38.7305 14.83565763588376", "object_type": "PAYLOAD", "criticality_score": 9.0, "last_updated": "2026-06-11T12:15:23.970987+00:00", "maneuver_count": 0}, "503": {"norad_id": "40336", "name": "CBERS-4", "tle1": "1 40336U 14079A   26161.62462910  .00000344  00000-0  13442-3 0  9991", "tle2": "2 40336  98.3534 218.6621 0001997  69.6838 290.4562 14.35508325603016", "object_type": "PAYLOAD", "criticality_score": 9.0, "last_updated": "2026-06-11T12:15:23.970987+00:00", "maneuver_count": 0}, "601": {"norad_id": "40063", "name": "GONETS M 10 (M20)", "tle1": "1 40063U 14036C   26161.63097623  .00000067  00000-0  41282-3 0  9992", "tle2": "2 40063  82.5110 311.7477 0022417 154.3973 205.8222 12.42945606541437", "object_type": "PAYLOAD", "criticality_score": 9.0, "last_updated": "2026-06-11T12:15:23.970987+00:00", "maneuver_count": 0}, "602": {"norad_id": "40552", "name": "GONETS M 11 (M21)", "tle1": "1 40552U 15020A   26161.64905795 -.00000009  00000-0 -13883-3 0  9992", "tle2": "2 40552  82.4876  35.0658 0016903  19.5525 340.6200 12.42876887507927", "object_type": "PAYLOAD", "criticality_score": 9.0, "last_updated": "2026-06-11T12:15:23.970987+00:00", "maneuver_count": 0}, "603": {"norad_id": "40553", "name": "GONETS M 12 (M22)", "tle1": "1 40553U 15020B   26161.62262064  .00000039  00000-0  20715-3 0  9999", "tle2": "2 40553  82.4910  36.2043 0015653   5.0878 355.0358 12.42891132507913", "object_type": "PAYLOAD", "criticality_score": 9.0, "last_updated": "2026-06-11T12:15:23.970987+00:00", "maneuver_count": 0}, "604": {"norad_id": "40554", "name": "GONETS M 13 (M23)", "tle1": "1 40554U 15020C   26161.59599192 -.00000022  00000-0 -23059-3 0  9999", "tle2": "2 40554  82.4871  34.8380 0013983 350.7646   9.3174 12.42869970507881", "object_type": "PAYLOAD", "criticality_score": 9.0, "last_updated": "2026-06-11T12:15:23.970987+00:00", "maneuver_count": 0}, "661": {"norad_id": "40118", "name": "GAOFEN 2", "tle1": "1 40118U 14049A   26161.62227104  .00001053  00000-0  14315-3 0  9998", "tle2": "2 40118  98.0111 225.8360 0005871 252.9296 107.1273 14.80894215638266", "object_type": "PAYLOAD", "criticality_score": 9.0, "last_updated": "2026-06-11T12:15:23.970987+00:00", "maneuver_count": 0}}}